[
    {
        "Altitude(m)": 717287.8555881252,
        "Argument of Periapsis(deg)": 0.011390121186627068,
        "Eccentricity": 0.0,
        "Inclination(deg)": 45.0,
        "Latitude(deg)": -43.70882702233502,
        "Longitude(deg)": -168.82372070291942,
        "Mean Anomaly(deg)": 256.9877166474808,
        "RAAN(deg)": 39.98924805854179,
        "Satellite Name": "Constellation 1 191",
        "Satellite Number": 191,
        "Semi-Major Axis(m)": 7083131.272910544,
        "Time(s)": 190
    },
    {
        "Altitude(m)": 717293.3287090078,
        "Argument of Periapsis(deg)": 0.011450069192872472,
        "Eccentricity": 0.0,
        "Inclination(deg)": 45.0,
        "Latitude(deg)": -43.72208902518563,
        "Longitude(deg)": -168.7462841667653,
        "Mean Anomaly(deg)": 257.04841778773067,
        "RAAN(deg)": 39.98919146937622,
        "Satellite Name": "Constellation 1 191",
        "Satellite Number": 191,
        "Semi-Major Axis(m)": 7083131.272910544,
        "Time(s)": 191
    },
    {
        "Altitude(m)": 717298.7775994713,
        "Argument of Periapsis(deg)": 0.01151001719911788,
        "Eccentricity": 0.0,
        "Inclination(deg)": 45.0,
        "Latitude(deg)": -43.73529280977623,
        "Longitude(deg)": -168.6688118081557,
        "Mean Anomaly(deg)": 257.1091189279806,
        "RAAN(deg)": 39.989134880210656,
        "Satellite Name": "Constellation 1 191",
        "Satellite Number": 191,
        "Semi-Major Axis(m)": 7083131.272910544,
        "Time(s)": 192
    },
    {
        "Altitude(m)": 717304.2022394207,
        "Argument of Periapsis(deg)": 0.011569965205363285,
        "Eccentricity": 0.0,
        "Inclination(deg)": 45.0,
        "Latitude(deg)": -43.74843832434743,
        "Longitude(deg)": -168.59130392065836,
        "Mean Anomaly(deg)": 257.16982006823054,
        "RAAN(deg)": 39.98907829104508,
        "Satellite Name": "Constellation 1 191",
        "Satellite Number": 191,
        "Semi-Major Axis(m)": 7083131.272910544,
        "Time(s)": 193
    },
    {
        "Altitude(m)": 717309.6026088626,
        "Argument of Periapsis(deg)": 0.01162991321160869,
        "Eccentricity": 0.0,
        "Inclination(deg)": 45.0,
        "Latitude(deg)": -43.761525517311775,
        "Longitude(deg)": -168.5137602940806,
        "Mean Anomaly(deg)": 257.23052120848047,
        "RAAN(deg)": 39.98902170187952,
        "Satellite Name": "Constellation 1 191",
        "Satellite Number": 191,
        "Semi-Major Axis(m)": 7083131.272910544,
        "Time(s)": 194
    },
    {
        "Altitude(m)": 717314.9786878924,
        "Argument of Periapsis(deg)": 0.011689861217854095,
        "Eccentricity": 0.0,
        "Inclination(deg)": 45.0,
        "Latitude(deg)": -43.77455433725295,
        "Longitude(deg)": -168.43618122305062,
        "Mean Anomaly(deg)": 257.2912223487303,
        "RAAN(deg)": 39.98896511271395,
        "Satellite Name": "Constellation 1 191",
        "Satellite Number": 191,
        "Semi-Major Axis(m)": 7083131.272910544,
        "Time(s)": 195
    },
    {
        "Altitude(m)": 717320.330456683,
        "Argument of Periapsis(deg)": 0.0117498092240995,
        "Eccentricity": 0.0,
        "Inclination(deg)": 45.0,
        "Latitude(deg)": -43.78752473292781,
        "Longitude(deg)": -168.3585668346284,
        "Mean Anomaly(deg)": 257.3519234889802,
        "RAAN(deg)": 39.988908523548375,
        "Satellite Name": "Constellation 1 191",
        "Satellite Number": 191,
        "Semi-Major Axis(m)": 7083131.272910544,
        "Time(s)": 196
    },
    {
        "Altitude(m)": 717325.6578955085,
        "Argument of Periapsis(deg)": 0.011809757230344905,
        "Eccentricity": 0.0,
        "Inclination(deg)": 45.0,
        "Latitude(deg)": -43.800436653266914,
        "Longitude(deg)": -168.2809172564018,
        "Mean Anomaly(deg)": 257.41262462923015,
        "RAAN(deg)": 39.9888519343828,
        "Satellite Name": "Constellation 1 191",
        "Satellite Number": 191,
        "Semi-Major Axis(m)": 7083131.272910544,
        "Time(s)": 197
    },
    {
        "Altitude(m)": 717330.9609847214,
        "Argument of Periapsis(deg)": 0.011869705236590313,
        "Eccentricity": 0.0,
        "Inclination(deg)": 45.0,
        "Latitude(deg)": -43.8132900473755,
        "Longitude(deg)": -168.2032326164852,
        "Mean Anomaly(deg)": 257.47332576947997,
        "RAAN(deg)": 39.98879534521724,
        "Satellite Name": "Constellation 1 191",
        "Satellite Number": 191,
        "Semi-Major Axis(m)": 7083131.272910544,
        "Time(s)": 198
    },
    {
        "Altitude(m)": 717336.2397047741,
        "Argument of Periapsis(deg)": 0.011929653242835719,
        "Eccentricity": 0.0,
        "Inclination(deg)": 45.0,
        "Latitude(deg)": -43.82608486453431,
        "Longitude(deg)": -168.1255130435189,
        "Mean Anomaly(deg)": 257.53402690972996,
        "RAAN(deg)": 39.98873875605167,
        "Satellite Name": "Constellation 1 191",
        "Satellite Number": 191,
        "Semi-Major Axis(m)": 7083131.272910544,
        "Time(s)": 199
    }
]